[{"OBJECT_NAME":"BANDWAGON-2 OBJECT D","OBJECT_ID":"2024-247D","EPOCH":"2026-03-09T12:32:33.670752","MEAN_MOTION":15.29076102,"ECCENTRICITY":0.00034883,"INCLINATION":44.9954,"RA_OF_ASC_NODE":115.671,"ARG_OF_PERICENTER":351.1453,"MEAN_ANOMALY":8.9368,"EPHEMERIS_TYPE":0,"CLASSIFICATION_TYPE":"U","NORAD_CAT_ID":62380,"ELEMENT_SET_NO":999,"REV_AT_EPOCH":6773,"BSTAR":0.00040119131,"MEAN_MOTION_DOT":0.00011259,"MEAN_MOTION_DDOT":0},{"OBJECT_NAME":"STARLINK-36430","OBJECT_ID":"2026-002X","EPOCH":"2026-03-09T02:25:27.034176","MEAN_MOTION":15.27585781,"ECCENTRICITY":0.00034264,"INCLINATION":43.0007,"RA_OF_ASC_NODE":328.1775,"ARG_OF_PERICENTER":244.167,"MEAN_ANOMALY":115.8829,"EPHEMERIS_TYPE":0,"CLASSIFICATION_TYPE":"U","NORAD_CAT_ID":67326,"ELEMENT_SET_NO":999,"REV_AT_EPOCH":1115,"BSTAR":0.0010713694,"MEAN_MOTION_DOT":0.00029345,"MEAN_MOTION_DDOT":0}]
